CCSDS_OEM_VERS = 1.0
CREATION_DATE  = 2017-05-11T11:17:10
ORIGINATOR     = GMAT USER

META_START
OBJECT_NAME          = MOPSSat_alt_35785_km_RAAN_90_091
OBJECT_ID            = SatId
CENTER_NAME          = Earth
REF_FRAME            = EME2000
TIME_SYSTEM          = UTC
START_TIME           = 2017-01-01T00:00:00.000
USEABLE_START_TIME   = 2017-01-01T00:00:00.000
USEABLE_STOP_TIME    = 2017-01-02T00:00:00.000
STOP_TIME            = 2017-01-02T00:00:00.000
INTERPOLATION        = Lagrange
INTERPOLATION_DEGREE = 7 
META_STOP


                                                                                   

2017-01-01T18:20:00.000   4.134729054901878e+04   3.405758290123101e+03  -7.291582652918357e+03  -2.748273401661719e-01   3.064933860197681e+00   4.849639999078149e-02
2017-01-01T18:20:10.000   4.134453125013219e+04   3.436406718082916e+03  -7.291095744491437e+03  -2.770324096758369e-01   3.064751339068793e+00   4.888528054761793e-02
2017-01-01T18:20:20.000   4.134174990105270e+04   3.467053312608640e+03  -7.290604947347490e+03  -2.792373791504562e-01   3.064567179482812e+00   4.927414346614583e-02
2017-01-01T18:20:30.000   4.133894650280880e+04   3.497698057074421e+03  -7.290110261667872e+03  -2.814422473887078e-01   3.064381381468932e+00   4.966298853449121e-02
2017-01-01T18:20:40.000   4.133612105644772e+04   3.528340934779796e+03  -7.289611687637241e+03  -2.836470131838341e-01   3.064193945057702e+00   5.005181553982116e-02
2017-01-01T18:20:50.000   4.133327356297083e+04   3.558981929654569e+03  -7.289109225432150e+03  -2.858516753743569e-01   3.064004870276720e+00   5.044062427728840e-02
2017-01-01T18:21:00.000   4.133040402339786e+04   3.589621025555716e+03  -7.288602875232400e+03  -2.880562327934911e-01   3.063814157154910e+00   5.082941454110955e-02
2017-01-01T18:21:10.000   4.132751243875282e+04   3.620258206426734e+03  -7.288092637218544e+03  -2.902606842806085e-01   3.063621805721578e+00   5.121818612658703e-02
2017-01-01T18:21:20.000   4.132459881009841e+04   3.650893455900603e+03  -7.287578511577958e+03  -2.924650286526739e-01   3.063427816008681e+00   5.160693882507172e-02
2017-01-01T18:21:30.000   4.132166313851118e+04   3.681526757594652e+03  -7.287060498500472e+03  -2.946692647254580e-01   3.063232188049211e+00   5.199567242770375e-02
2017-01-01T18:21:40.000   4.131870542508055e+04   3.712158095110464e+03  -7.286538598178177e+03  -2.968733913135314e-01   3.063034921877099e+00   5.238438672541164e-02
2017-01-01T18:21:50.000   4.131572567094005e+04   3.742787451739607e+03  -7.286012810810939e+03  -2.990774072090863e-01   3.062836017529337e+00   5.277308150517734e-02
2017-01-01T18:22:00.000   4.131272387722619e+04   3.773414810860116e+03  -7.285483136599165e+03  -3.012813112104697e-01   3.062635475043213e+00   5.316175655506818e-02
2017-01-01T18:22:10.000   4.130970004509440e+04   3.804040155780280e+03  -7.284949575746586e+03  -3.034851021109423e-01   3.062433294457364e+00   5.355041166225449e-02
2017-01-01T18:22:20.000   4.130665417565079e+04   3.834663470429775e+03  -7.284412128448242e+03  -3.056887787484117e-01   3.062229475807239e+00   5.393904662178031e-02
2017-01-01T18:22:30.000   4.130358627002015e+04   3.865284738668529e+03  -7.283870794902454e+03  -3.078923399556989e-01   3.062024019129626e+00   5.432766122779276e-02
2017-01-01T18:22:40.000   4.130049632933098e+04   3.895903944443031e+03  -7.283325575308208e+03  -3.100957845717860e-01   3.061816924461655e+00   5.471625527552533e-02
2017-01-01T18:22:50.000   4.129738435475239e+04   3.926521071389495e+03  -7.282776469871651e+03  -3.122991114132626e-01   3.061608191843260e+00   5.510482855626259e-02
2017-01-01T18:23:00.000   4.129425034746763e+04   3.957136103128581e+03  -7.282223478801424e+03  -3.145023192955312e-01   3.061397821315416e+00   5.549338086107954e-02
2017-01-01T18:23:10.000   4.129109430867280e+04   3.987749023265279e+03  -7.281666602308430e+03  -3.167054070327993e-01   3.061185812920048e+00   5.588191198084059e-02
2017-01-01T18:23:20.000   4.128791623961009e+04   4.018359815094862e+03  -7.281105840611715e+03  -3.189083734169147e-01   3.060972166702291e+00   5.627042170246667e-02
2017-01-01T18:23:30.000   4.128471614152424e+04   4.048968461999078e+03  -7.280541193930761e+03  -3.211112172458819e-01   3.060756882707534e+00   5.665890981396462e-02
2017-01-01T18:23:40.000   4.128149401567958e+04   4.079574947287102e+03  -7.279972662488512e+03  -3.233139373124144e-01   3.060539960982579e+00   5.704737610240806e-02
2017-01-01T18:23:50.000   4.127824986328627e+04   4.110179254897777e+03  -7.279400246498345e+03  -3.255165324544753e-01   3.060321401570674e+00   5.743582036285076e-02
2017-01-01T18:24:00.000   4.127498368557398e+04   4.140781368695590e+03  -7.278823946177100e+03  -3.277190015046085e-01   3.060101204516468e+00   5.782424238939063e-02
2017-01-01T18:24:10.000   4.127169548377327e+04   4.171381272652428e+03  -7.278243761741749e+03  -3.299213433030193e-01   3.059879369864765e+00   5.821264197747694e-02
2017-01-01T18:24:20.000   4.126838525916546e+04   4.201978950358750e+03  -7.277659693418235e+03  -3.321235566623975e-01   3.059655897663867e+00   5.860101891770612e-02
2017-01-01T18:24:30.000   4.126505301304178e+04   4.232574385427039e+03  -7.277071741434238e+03  -3.343256403969487e-01   3.059430787962834e+00   5.898937300094210e-02
2017-01-01T18:24:40.000   4.126169874671242e+04   4.263167561401745e+03  -7.276479906020785e+03  -3.365275933159159e-01   3.059204040812095e+00   5.937770401717350e-02
2017-01-01T18:24:50.000   4.125832246150545e+04   4.293758461783926e+03  -7.275884187412070e+03  -3.387294142253494e-01   3.058975656263392e+00   5.976601175582586e-02
2017-01-01T18:25:00.000   4.125492415876223e+04   4.324347070061573e+03  -7.275284585844612e+03  -3.409311019302920e-01   3.058745634369438e+00   6.015429600614709e-02
2017-01-01T18:25:10.000   4.125150383983631e+04   4.354933369720697e+03  -7.274681101557086e+03  -3.431326552355762e-01   3.058513975183867e+00   6.054255655734792e-02
2017-01-01T18:25:20.000   4.124806150608192e+04   4.385517344354762e+03  -7.274073734788291e+03  -3.453340729537003e-01   3.058280678760450e+00   6.093079319999107e-02
2017-01-01T18:25:30.000   4.124459715886116e+04   4.416098977591702e+03  -7.273462485778420e+03  -3.475353538995766e-01   3.058045745153582e+00   6.131900572506489e-02
2017-01-01T18:25:40.000   4.124111079954437e+04   4.446678253093936e+03  -7.272847354769096e+03  -3.497364968905325e-01   3.057809174418293e+00   6.170719392398363e-02
2017-01-01T18:25:50.000   4.123760242950077e+04   4.477255154631199e+03  -7.272228342001771e+03  -3.519375007515534e-01   3.057570966609628e+00   6.209535758951210e-02
2017-01-01T18:26:00.000   4.123407205011171e+04   4.507829665971260e+03  -7.271605447720014e+03  -3.541383643074156e-01   3.057331121783534e+00   6.248349651437832e-02
2017-01-01T18:26:10.000   4.123051966277201e+04   4.538401770868922e+03  -7.270978672169782e+03  -3.563390863818954e-01   3.057089639996960e+00   6.287161049113373e-02
2017-01-01T18:26:20.000   4.122694526889222e+04   4.568971453035430e+03  -7.270348015599800e+03  -3.585396657955681e-01   3.056846521308000e+00   6.325969931176532e-02
2017-01-01T18:26:30.000   4.122334886990301e+04   4.599538696114239e+03  -7.269713478262345e+03  -3.607401013640602e-01   3.056601765776208e+00   6.364776276738743e-02
2017-01-01T18:26:40.000   4.121973046724403e+04   4.630103483770825e+03  -7.269075060411284e+03  -3.629403919045181e-01   3.056355373461823e+00   6.403580064938222e-02
2017-01-01T18:26:50.000   4.121609006241369e+04   4.660665799290220e+03  -7.268432762310847e+03  -3.651405362066305e-01   3.056107344429186e+00   6.442381274428959e-02
2017-01-01T18:27:00.000   4.121242765690930e+04   4.691225626064812e+03  -7.267786584225056e+03  -3.673405330677474e-01   3.055857678742639e+00   6.481179884000049e-02
2017-01-01T18:27:10.000   4.120874325224906e+04   4.721782947412919e+03  -7.267136526421636e+03  -3.695403812798195e-01   3.055606376468035e+00   6.519975872345374e-02
2017-01-01T18:27:20.000   4.120503684988755e+04   4.752337747281742e+03  -7.266482589157077e+03  -3.717400796800033e-01   3.055353437666971e+00   6.558769218956037e-02
2017-01-01T18:27:30.000   4.120130845129987e+04   4.782890009546185e+03  -7.265824772691490e+03  -3.739396271001840e-01   3.055098862402525e+00   6.597559903230191e-02
2017-01-01T18:27:40.000   4.119755805796295e+04   4.813439718167797e+03  -7.265163077285312e+03  -3.761390223784165e-01   3.054842650737984e+00   6.636347904674784e-02
2017-01-01T18:27:50.000   4.119378567140112e+04   4.843986856798767e+03  -7.264497503207336e+03  -3.783382643304203e-01   3.054584802739940e+00   6.675133202402868e-02
2017-01-01T18:28:00.000   4.118999129315312e+04   4.874531409076048e+03  -7.263828050728902e+03  -3.805373517707495e-01   3.054325318476053e+00   6.713915775506935e-02
2017-01-01T18:28:10.000   4.118617492477092e+04   4.905073358621215e+03  -7.263154720123677e+03  -3.827362835127853e-01   3.054064198014968e+00   6.752695603058793e-02
2017-01-01T18:28:20.000   4.118233656785933e+04   4.935612688747158e+03  -7.262477511674660e+03  -3.849350583476133e-01   3.053801441429037e+00   6.791472663737051e-02
2017-01-01T18:28:30.000   4.117847622402375e+04   4.966149382853301e+03  -7.261796425664946e+03  -3.871336750724840e-01   3.053537048790731e+00   6.830246936329032e-02
2017-01-01T18:28:40.000   4.117459389489047e+04   4.996683424269896e+03  -7.261111462381315e+03  -3.893321324795988e-01   3.053271020174031e+00   6.869018399533025e-02
2017-01-01T18:28:50.000   4.117068958201912e+04   5.027214796947073e+03  -7.260422622098778e+03  -3.915304294057243e-01   3.053003355648431e+00   6.907787032833236e-02
2017-01-01T18:29:00.000   4.116676328698988e+04   5.057743484765769e+03  -7.259729905095996e+03  -3.937285646825775e-01   3.052734055284916e+00   6.946552815624844e-02
